FLOCK 2K-32             
1 42870U 17042AX  17277.51190282  .00005474  00000-0  16854-3 0  9994
2 42870  96.9959 182.1418 0010698 325.9351  34.1205 15.33971478 12407
FLOCK 2K-29             
1 42871U 17042AY  17277.31502031  .00003437  00000-0  10670-3 0  9999
2 42871  96.9961 181.9592 0010823 325.8176  34.2370 15.33954605 12378
FLOCK 2K-30             
1 42872U 17042AZ  17277.51048799  .00009001  00000-0  27506-3 0  9997
2 42872  96.9960 182.1429 0010765 326.1567  33.8988 15.34032525 12394
FLOCK 2K-44             
1 42873U 17042BA  17277.63750407  .00007602  00000-0  23370-3 0  9997
2 42873  96.9960 182.2733 0011222 312.3591  47.6702 15.33892599 12422
FLOCK 2K-43             
1 42874U 17042BB  17277.51233010  .00003630  00000-0  11428-3 0  9999
2 42874  96.9961 182.1416 0011669 312.0763  47.9487 15.33466436 12402
FLOCK 2K-41             
1 42875U 17042BC  17277.31017312  .00009028  00000-0  27616-3 0  9996
2 42875  96.9961 181.9626 0011338 315.0566  44.9759 15.33995922 12372
FLOCK 2K-36             
1 42876U 17042BD  17277.30699716  .00003674  00000-0  11390-3 0  9993
2 42876  96.9961 181.9692 0011545 314.5809  45.4492 15.33949218 12377
FLOCK 2K-35             
1 42877U 17042BE  17277.43923769  .00005054  00000-0  15606-3 0  9994
2 42877  96.9961 182.0901 0011496 314.3685  45.6616 15.33905455 12395
FLOCK 2K-34             
1 42878U 17042BF  17277.50150534  .00004360  00000-0  13465-3 0  9995
2 42878  96.9958 182.1520 0011508 313.6541  46.3748 15.33973707 12408
FLOCK 2K-33             
1 42879U 17042BG  17277.62921457  .00008822  00000-0  26977-3 0  9998
2 42879  96.9957 182.2795 0011531 312.6190  47.4080 15.34011272 12422
FLOCK 2K-28             
1 42880U 17042BH  17277.50938707  .00003169  00000-0  99970-4 0  9996
2 42880  96.9963 182.1464 0011697 312.5414  47.4841 15.33489675 12402
LEMUR-2-ARTFISCHER      
1 42881U 17042BJ  17277.56995911  .00007180  00000-0  22172-3 0  9999
2 42881  96.9988 182.2376 0012215 315.8103  44.2164 15.33757536 12408
FLOCK 2K-27             
1 42882U 17042BK  17277.62727019  .00008753  00000-0  26749-3 0  9990
2 42882  96.9962 182.2852 0011672 313.0708  46.9558 15.34028824 12427
FLOCK 2K-26             
1 42883U 17042BL  17277.29831272  .00009679  00000-0  29534-3 0  9994
2 42883  96.9962 181.9780 0011699 313.3447  46.6821 15.34049979 12374
FLOCK 2K-25             
1 42884U 17042BM  17277.04293023  .00003695  00000-0  11453-3 0  9997
2 42884  96.9955 181.7208 0011552 315.1382  44.8927 15.33956627 12335
FLOCK 2K-20             
1 42885U 17042BN  17277.42756864  .00003451  00000-0  10665-3 0  9991
2 42885  96.9960 182.1048 0011723 312.8882  47.1377 15.34091096 12390
FLOCK 2K-19             
1 42886U 17042BP  17277.62584029  .00003738  00000-0  11572-3 0  9992
2 42886  96.9961 182.2878 0011808 312.2005  47.8236 15.33986330 12427
FLOCK 2K-18             
1 42887U 17042BQ  17277.55295488  .00005782  00000-0  17638-3 0  9993
2 42887  96.9961 182.2331 0012004 311.0733  48.9473 15.34226712 12412
FLOCK 2K-17             
1 42888U 17042BR  17277.29399472  .00003713  00000-0  11430-3 0  9999
2 42888  96.9956 181.9798 0011907 312.3898  47.6338 15.34168251 12371
FLOCK 2K-16             
1 42889U 17042BS  17277.49242448  .00011843  00000-0  35973-3 0  9993
2 42889  96.9963 182.1677 0011649 312.0117  48.0135 15.34144032 12408
FLOCK 2K-15             
1 42890U 17042BT  17277.29144042  .00008722  00000-0  26473-3 0  9991
2 42890  96.9965 181.9914 0011902 311.5944  48.4279 15.34246931 12377
FLOCK 2K-13             
1 42891U 17042BU  17277.62179181  .00009663  00000-0  29517-3 0  9998
2 42891  96.9960 182.2907 0011859 308.5968  51.4213 15.34014194 12424
FLOCK 2K-14             
1 42892U 17042BV  17277.61888529  .00005722  00000-0  17477-3 0  9995
2 42892  96.9957 182.2906 0011869 310.0464  49.9737 15.34193287 12424
FLOCK 2K-12             
1 42893U 17042BW  17277.22524282  .00007160  00000-0  21689-3 0  9994
2 42893  96.9963 181.9279 0011819 311.0309  48.9913 15.34371259 12360
FLOCK 2K-11             
1 42894U 17042BX  17277.55391736  .00010470  00000-0  31908-3 0  9990
2 42894  96.9966 182.2345 0011945 307.8666  52.1496 15.34065959 12417
FLOCK 2K-10             
1 42895U 17042BY  17277.48487654  .00003526  00000-0  10835-3 0  9998
2 42895  96.9957 182.1715 0011789 308.8269  51.1922 15.34260834 12405
FLOCK 2K-09             
1 42896U 17042BZ  17277.28665133  .00007297  00000-0  22142-3 0  9990
2 42896  96.9961 181.9928 0011473 308.1559  51.8651 15.34317252 12547
FLOCK 2K-06             
1 42897U 17042CA  17277.18944609  .00010333  00000-0  31679-3 0  9998
2 42897  96.9963 181.8288 0010697 326.8375  33.2197 15.33894392 12350
SILU-1 (SILKROAD 1)     
1 42903U 17021F   17277.58236566  .00027951  00000-0  32388-3 0  9995
2 42903  42.7808  64.3856 0007894 300.1111 110.1251 15.61218657  9840
